{"type": "FeatureCollection", "features": [ {"type": "Feature", "properties": {"norad_id": 30332, "name": "FENGYUN 1C DEB", "group": "fengyun-1c-debris", "lat": -79.54649547505653, "lon": 66.2295751335767, "alt_km": 1099.51311807192, "timestamp": "2025-12-08T23:34:04.245054+00:00", "meta": {"OBJECT_NAME": "FENGYUN 1C DEB", "OBJECT_ID": "1999-025AAT", "EPOCH": "2025-12-08T16:08:42.296928", "MEAN_MOTION": 13.76704515, "ECCENTRICITY": 0.01780218, "INCLINATION": 99.7146, "RA_OF_ASC_NODE": 314.1094, "ARG_OF_PERICENTER": 113.5104, "MEAN_ANOMALY": 59.6534, "EPHEMERIS_TYPE": 0, "CLASSIFICATION_TYPE": "U", "NORAD_CAT_ID": 30332, "ELEMENT_SET_NO": 999, "REV_AT_EPOCH": 94659, "BSTAR": 0.00061894015, "MEAN_MOTION_DOT": 6.38e-06, "MEAN_MOTION_DDOT": 0}, "tle": {"line1": "1 30332U 99025AAT 25342.67271177  .00000638  00000+0  61894-3 0  9997", "line2": "2 30332  99.7146 314.1094 0178021 113.5104  59.6534 13.76704515946599"}}, "geometry": {"type": "Point", "coordinates": [66.2295751335767, -79.54649547505653]}}, {"type": "Feature", "properties": {"norad_id": 30334, "name": "FENGYUN 1C DEB", "group": "fengyun-1c-debris", "lat": 3.870983602231893, "lon": 82.04382518417503, "alt_km": 819.2574528153791, "timestamp": "2025-12-08T23:34:04.245064+00:00", "meta": {"OBJECT_NAME": "FENGYUN 1C DEB", "OBJECT_ID": "1999-025AAV", "EPOCH": "2025-12-07T20:32:10.199904", "MEAN_MOTION": 13.92353676, "ECCENTRICITY": 0.01446801, "INCLINATION": 99.0216, "RA_OF_ASC_NODE": 81.563, "ARG_OF_PERICENTER": 355.3694, "MEAN_ANOMALY": 125.7435, "EPHEMERIS_TYPE": 0, "CLASSIFICATION_TYPE": "U", "NORAD_CAT_ID": 30334, "ELEMENT_SET_NO": 999, "REV_AT_EPOCH": 95153, "BSTAR": 0.0018026917, "MEAN_MOTION_DOT": 2.48e-05, "MEAN_MOTION_DDOT": 0}, "tle": {"line1": "1 30334U 99025AAV 25341.85567361  .00002480  00000+0  18027-2 0  9997", "line2": "2 30334  99.0216  81.5630 0144680 355.3694 125.7435 13.92353676951538"}}, "geometry": {"type": "Point", "coordinates": [82.04382518417503, 3.870983602231893]}}, {"type": "Feature", "properties": {"norad_id": 30335, "name": "FENGYUN 1C DEB", "group": "fengyun-1c-debris", "lat": 81.03878992972257, "lon": -121.77350004657421, "alt_km": 820.2645794496848, "timestamp": "2025-12-08T23:34:04.245074+00:00", "meta": {"OBJECT_NAME": "FENGYUN 1C DEB", "OBJECT_ID": "1999-025AAW", "EPOCH": "2025-12-08T13:23:57.893280", "MEAN_MOTION": 14.01359342, "ECCENTRICITY": 0.01325882, "INCLINATION": 98.9051, "RA_OF_ASC_NODE": 333.9558, "ARG_OF_PERICENTER": 143.1672, "MEAN_ANOMALY": 332.6928, "EPHEMERIS_TYPE": 0, "CLASSIFICATION_TYPE": "U", "NORAD_CAT_ID": 30335, "ELEMENT_SET_NO": 999, "REV_AT_EPOCH": 96532, "BSTAR": 0.0001931181, "MEAN_MOTION_DOT": 2.72e-06, "MEAN_MOTION_DDOT": 0}, "tle": {"line1": "1 30335U 99025AAW 25342.55830895  .00000272  00000+0  19312-3 0  9997", "line2": "2 30335  98.9051 333.9558 0132588 143.1672 332.6928 14.01359342965325"}}, "geometry": {"type": "Point", "coordinates": [-121.77350004657421, 81.03878992972257]}}, {"type": "Feature", "properties": {"norad_id": 30336, "name": "FENGYUN 1C DEB", "group": "fengyun-1c-debris", "lat": 53.87411818745, "lon": -7.9259203450790245, "alt_km": 796.8573335318042, "timestamp": "2025-12-08T23:34:04.245085+00:00", "meta": {"OBJECT_NAME": "FENGYUN 1C DEB", "OBJECT_ID": "1999-025AAX", "EPOCH": "2025-12-08T15:26:22.338240", "MEAN_MOTION": 14.19297241, "ECCENTRICITY": 0.00437602, "INCLINATION": 98.6009, "RA_OF_ASC_NODE": 3.7126, "ARG_OF_PERICENTER": 20.4155, "MEAN_ANOMALY": 104.6394, "EPHEMERIS_TYPE": 0, "CLASSIFICATION_TYPE": "U", "NORAD_CAT_ID": 30336, "ELEMENT_SET_NO": 999, "REV_AT_EPOCH": 97544, "BSTAR": 0.00061777674, "MEAN_MOTION_DOT": 1.266e-05, "MEAN_MOTION_DDOT": 0}, "tle": {"line1": "1 30336U 99025AAX 25342.64331410  .00001266  00000+0  61778-3 0  9994", "line2": "2 30336  98.6009   3.7126 0043760  20.4155 104.6394 14.19297241975441"}}, "geometry": {"type": "Point", "coordinates": [-7.9259203450790245, 53.87411818745]}}, {"type": "Feature", "properties": {"norad_id": 30338, "name": "FENGYUN 1C DEB", "group": "fengyun-1c-debris", "lat": 53.875494461549174, "lon": 40.92285603724312, "alt_km": 895.9577842552253, "timestamp": "2025-12-08T23:34:04.245095+00:00", "meta": {"OBJECT_NAME": "FENGYUN 1C DEB", "OBJECT_ID": "1999-025AAZ", "EPOCH": "2025-12-08T15:45:55.186272", "MEAN_MOTION": 14.47442786, "ECCENTRICITY": 0.02720199, "INCLINATION": 98.4583, "RA_OF_ASC_NODE": 52.3613, "ARG_OF_PERICENTER": 206.2798, "MEAN_ANOMALY": 317.0242, "EPHEMERIS_TYPE": 0, "CLASSIFICATION_TYPE": "U", "NORAD_CAT_ID": 30338, "ELEMENT_SET_NO": 999, "REV_AT_EPOCH": 98085, "BSTAR": 0.0017073484, "MEAN_MOTION_DOT": 9.953e-05, "MEAN_MOTION_DDOT": 0}, "tle": {"line1": "1 30338U 99025AAZ 25342.65688873  .00009953  00000+0  17073-2 0  9994", "line2": "2 30338  98.4583  52.3613 0272019 206.2798 317.0242 14.47442786980857"}}, "geometry": {"type": "Point", "coordinates": [40.92285603724312, 53.875494461549174]}}, {"type": "Feature", "properties": {"norad_id": 30339, "name": "FENGYUN 1C DEB", "group": "fengyun-1c-debris", "lat": 45.71033922874733, "lon": 79.92165361264776, "alt_km": 751.1050820655473, "timestamp": "2025-12-08T23:34:04.245106+00:00", "meta": {"OBJECT_NAME": "FENGYUN 1C DEB", "OBJECT_ID": "1999-025ABA", "EPOCH": "2025-12-08T13:26:33.866880", "MEAN_MOTION": 14.38058353, "ECCENTRICITY": 0.00212505, "INCLINATION": 98.9743, "RA_OF_ASC_NODE": 88.8039, "ARG_OF_PERICENTER": 97.7259, "MEAN_ANOMALY": 286.141, "EPHEMERIS_TYPE": 0, "CLASSIFICATION_TYPE": "U", "NORAD_CAT_ID": 30339, "ELEMENT_SET_NO": 999, "REV_AT_EPOCH": 97367, "BSTAR": 0.0035745027, "MEAN_MOTION_DOT": 0.00010821, "MEAN_MOTION_DDOT": 0}, "tle": {"line1": "1 30339U 99025ABA 25342.56011420  .00010821  00000+0  35745-2 0  9995", "line2": "2 30339  98.9743  88.8039 0021250  97.7259 286.1410 14.38058353973679"}}, "geometry": {"type": "Point", "coordinates": [79.92165361264776, 45.71033922874733]}}, {"type": "Feature", "properties": {"norad_id": 30340, "name": "FENGYUN 1C DEB", "group": "fengyun-1c-debris", "lat": 4.24185020983673, "lon": 39.06569970323569, "alt_km": 961.7745690010734, "timestamp": "2025-12-08T23:34:04.245116+00:00", "meta": {"OBJECT_NAME": "FENGYUN 1C DEB", "OBJECT_ID": "1999-025ABB", "EPOCH": "2025-12-08T15:35:58.144128", "MEAN_MOTION": 14.04594654, "ECCENTRICITY": 0.01460392, "INCLINATION": 99.0018, "RA_OF_ASC_NODE": 39.4101, "ARG_OF_PERICENTER": 146.1524, "MEAN_ANOMALY": 341.4004, "EPHEMERIS_TYPE": 0, "CLASSIFICATION_TYPE": "U", "NORAD_CAT_ID": 30340, "ELEMENT_SET_NO": 999, "REV_AT_EPOCH": 96723, "BSTAR": 6.6338254e-05, "MEAN_MOTION_DOT": 7.3e-07, "MEAN_MOTION_DDOT": 0}, "tle": {"line1": "1 30340U 99025ABB 25342.64997852  .00000073  00000+0  66338-4 0  9990", "line2": "2 30340  99.0018  39.4101 0146039 146.1524 341.4004 14.04594654967238"}}, "geometry": {"type": "Point", "coordinates": [39.06569970323569, 4.24185020983673]}}, {"type": "Feature", "properties": {"norad_id": 30341, "name": "FENGYUN 1C DEB", "group": "fengyun-1c-debris", "lat": 5.261978755060489, "lon": 51.62891740380587, "alt_km": 790.8096557143472, "timestamp": "2025-12-08T23:34:04.245126+00:00", "meta": {"OBJECT_NAME": "FENGYUN 1C DEB", "OBJECT_ID": "1999-025ABC", "EPOCH": "2025-12-08T14:41:00.581856", "MEAN_MOTION": 14.33988306, "ECCENTRICITY": 0.00501273, "INCLINATION": 99.2179, "RA_OF_ASC_NODE": 230.3777, "ARG_OF_PERICENTER": 68.8325, "MEAN_ANOMALY": 355.2298, "EPHEMERIS_TYPE": 0, "CLASSIFICATION_TYPE": "U", "NORAD_CAT_ID": 30341, "ELEMENT_SET_NO": 999, "REV_AT_EPOCH": 97022, "BSTAR": 0.0039845502, "MEAN_MOTION_DOT": 0.00011248, "MEAN_MOTION_DDOT": 0}, "tle": {"line1": "1 30341U 99025ABC 25342.61181229  .00011248  00000+0  39846-2 0  9999", "line2": "2 30341  99.2179 230.3777 0050127  68.8325 355.2298 14.33988306970225"}}, "geometry": {"type": "Point", "coordinates": [51.62891740380587, 5.261978755060489]}}, {"type": "Feature", "properties": {"norad_id": 30342, "name": "FENGYUN 1C DEB", "group": "fengyun-1c-debris", "lat": -7.341584505611587, "lon": 163.49900650427094, "alt_km": 1060.694716459776, "timestamp": "2025-12-08T23:34:04.245136+00:00", "meta": {"OBJECT_NAME": "FENGYUN 1C DEB", "OBJECT_ID": "1999-025ABD", "EPOCH": "2025-12-08T11:41:50.034624", "MEAN_MOTION": 13.80034712, "ECCENTRICITY": 0.01682334, "INCLINATION": 100.1956, "RA_OF_ASC_NODE": 161.6378, "ARG_OF_PERICENTER": 133.5409, "MEAN_ANOMALY": 284.3651, "EPHEMERIS_TYPE": 0, "CLASSIFICATION_TYPE": "U", "NORAD_CAT_ID": 30342, "ELEMENT_SET_NO": 999, "REV_AT_EPOCH": 94830, "BSTAR": 0.0011367849, "MEAN_MOTION_DOT": 1.264e-05, "MEAN_MOTION_DDOT": 0}, "tle": {"line1": "1 30342U 99025ABD 25342.48738466  .00001264  00000+0  11368-2 0  9992", "line2": "2 30342 100.1956 161.6378 0168233 133.5409 284.3651 13.80034712948308"}}, "geometry": {"type": "Point", "coordinates": [163.49900650427094, -7.341584505611587]}}, {"type": "Feature", "properties": {"norad_id": 30344, "name": "FENGYUN 1C DEB", "group": "fengyun-1c-debris", "lat": -13.540750290802869, "lon": -117.28826265005337, "alt_km": 722.1374665254161, "timestamp": "2025-12-08T23:34:04.245147+00:00", "meta": {"OBJECT_NAME": "FENGYUN 1C DEB", "OBJECT_ID": "1999-025ABF", "EPOCH": "2025-12-08T04:37:05.848320", "MEAN_MOTION": 14.51616836, "ECCENTRICITY": 0.00081158, "INCLINATION": 98.8198, "RA_OF_ASC_NODE": 64.0265, "ARG_OF_PERICENTER": 133.9206, "MEAN_ANOMALY": 255.8181, "EPHEMERIS_TYPE": 0, "CLASSIFICATION_TYPE": "U", "NORAD_CAT_ID": 30344, "ELEMENT_SET_NO": 999, "REV_AT_EPOCH": 98011, "BSTAR": 0.0032291036, "MEAN_MOTION_DOT": 0.00012919, "MEAN_MOTION_DDOT": 0}, "tle": {"line1": "1 30344U 99025ABF 25342.19242880  .00012919  00000+0  32291-2 0  9999", "line2": "2 30344  98.8198  64.0265 0008115 133.9206 255.8181 14.51616836980111"}}, "geometry": {"type": "Point", "coordinates": [-117.28826265005337, -13.540750290802869]}}]}